{
  "norad_id": 57923,
  "name": "STARLINK-30440",
  "history": [
    {
      "epoch": "2026-03-28T17:12:31.163040Z",
      "apogee_km": 486.6100104692441,
      "perigee_km": 484.3675266581404,
      "latitude_deg": 3.1545226021967585e-05,
      "longitude_deg": 133.8496173824736,
      "height_km": 485.04947649829495,
      "semi_major_axis_km": 6863.625768563692,
      "eccentricity": 0.00016336,
      "inclination_deg": 42.9985,
      "raan_deg": 218.1129,
      "arg_perigee_deg": 281.1123,
      "mean_anomaly_deg": 78.9545,
      "mean_motion_rev_day": 15.26765606
    },
    {
      "epoch": "2026-03-29T01:03:34.286112Z",
      "apogee_km": 486.20446998634634,
      "perigee_km": 484.87428950395315,
      "latitude_deg": 3.830895675283153e-05,
      "longitude_deg": 13.920988033063152,
      "height_km": 485.18372831035117,
      "semi_major_axis_km": 6863.6763797451495,
      "eccentricity": 9.69e-05,
      "inclination_deg": 43.0005,
      "raan_deg": 216.2697,
      "arg_perigee_deg": 281.4579,
      "mean_anomaly_deg": 78.6164,
      "mean_motion_rev_day": 15.26748719
    },
    {
      "epoch": "2026-03-30T00:36:40.987296Z",
      "apogee_km": 486.5109499158734,
      "perigee_km": 484.5471177902664,
      "latitude_deg": 3.860984290505553e-05,
      "longitude_deg": 14.141426688547318,
      "height_km": 485.3334679117836,
      "semi_major_axis_km": 6863.666033853069,
      "eccentricity": 0.00014306,
      "inclination_deg": 43.0009,
      "raan_deg": 210.7353,
      "arg_perigee_deg": 268.3932,
      "mean_anomaly_deg": 91.6756,
      "mean_motion_rev_day": 15.26752171
    },
    {
      "epoch": "2026-03-30T17:52:59.665728Z",
      "apogee_km": 485.98728651062993,
      "perigee_km": 485.2247246627094,
      "latitude_deg": 4.571098334670202e-05,
      "longitude_deg": 110.2944784098729,
      "height_km": 485.00030481986073,
      "semi_major_axis_km": 6863.74300558667,
      "eccentricity": 5.555e-05,
      "inclination_deg": 42.9999,
      "raan_deg": 206.6755,
      "arg_perigee_deg": 1.0244,
      "mean_anomaly_deg": 359.0609,
      "mean_motion_rev_day": 15.26726489
    },
    {
      "epoch": "2026-03-31T00:09:47.882880Z",
      "apogee_km": 487.35117704772074,
      "perigee_km": 483.5933509756742,
      "latitude_deg": 4.497622553173065e-05,
      "longitude_deg": 14.36046021543432,
      "height_km": 485.88749675467875,
      "semi_major_axis_km": 6863.609264011697,
      "eccentricity": 0.00027375,
      "inclination_deg": 43.0012,
      "raan_deg": 205.2003,
      "arg_perigee_deg": 250.1652,
      "mean_anomaly_deg": 109.8905,
      "mean_motion_rev_day": 15.26771113
    }
  ]
}